start=new Date('2023-03-03T00:00:00.000Z').valueOf();
sats=[{"PERIOD":"92.970","BSTAR":"0.00097555000000","TLE_LINE1":"1 55372U 23013AT  23061.83334491  .00053951  00000-0  97555-3 0  9995","SITE":"AFETR","OBJECT_TYPE":"PAYLOAD","EPHEMERIS_TYPE":"0","REF_FRAME":"TEME","MEAN_MOTION_DOT":"0.00053951","OBJECT_ID":"2023-013AT","MEAN_ANOMALY":"338.1002","MEAN_MOTION":"15.48890428","GP_ID":"227363605","DECAY_DATE":null,"SEMIMAJOR_AXIS":"6798.108","COUNTRY_CODE":"US","APOAPSIS":"421.143","EPOCH":"2023-03-02T20:00:01.000224","RA_OF_ASC_NODE":"190.2362","MEAN_ELEMENT_THEORY":"SGP4","NORAD_CAT_ID":"55372","ELEMENT_SET_NO":"999","FILE":"3849487","REV_AT_EPOCH":"130","RCS_SIZE":"LARGE","INCLINATION":"42.9995","TIME_SYSTEM":"UTC","OBJECT_NAME":"STARLINK-5568","MEAN_MOTION_DDOT":"0.0000000000000","ECCENTRICITY":"0.00017210","PERIAPSIS":"418.803","LAUNCH_DATE":"2023-01-26","TLE_LINE2":"2 55372  42.9995 190.2362 0001721 280.9440 338.1002 15.48890428  1303","ARG_OF_PERICENTER":"280.9440","CENTER_NAME":"EARTH","CLASSIFICATION_TYPE":"U"},{"ELEMENT_SET_NO":"999","NORAD_CAT_ID":"55373","MEAN_ELEMENT_THEORY":"SGP4","FILE":"3849487","LAUNCH_DATE":"2023-01-26","TLE_LINE2":"2 55373  43.0000 190.2261 0001380 273.4318 349.4448 15.48889478  1305","PERIAPSIS":"419.037","MEAN_MOTION_DDOT":"0.0000000000000","ECCENTRICITY":"0.00013800","REV_AT_EPOCH":"130","RCS_SIZE":"LARGE","INCLINATION":"43.0000","OBJECT_NAME":"STARLINK-5581","TIME_SYSTEM":"UTC","ARG_OF_PERICENTER":"273.4318","CENTER_NAME":"EARTH","CLASSIFICATION_TYPE":"U","OBJECT_TYPE":"PAYLOAD","PERIOD":"92.970","BSTAR":"0.00098771000000","TLE_LINE1":"1 55373U 23013AU  23061.83334491  .00054630  00000-0  98771-3 0  9992","SITE":"AFETR","MEAN_MOTION_DOT":"0.00054630","REF_FRAME":"TEME","EPHEMERIS_TYPE":"0","EPOCH":"2023-03-02T20:00:01.000224","RA_OF_ASC_NODE":"190.2261","SEMIMAJOR_AXIS":"6798.111","COUNTRY_CODE":"US","APOAPSIS":"420.914","MEAN_MOTION":"15.48889478","DECAY_DATE":null,"GP_ID":"227364850","OBJECT_ID":"2023-013AU","MEAN_ANOMALY":"349.4448"},{"ECCENTRICITY":"0.00016180","MEAN_MOTION_DDOT":"0.0000000000000","RCS_SIZE":"LARGE","INCLINATION":"42.9994","TIME_SYSTEM":"UTC","OBJECT_NAME":"STARLINK-5578","REV_AT_EPOCH":"130","LAUNCH_DATE":"2023-01-26","TLE_LINE2":"2 55374  42.9994 190.2332 0001618 275.5964 344.7260 15.48888932  1303","PERIAPSIS":"418.877","CLASSIFICATION_TYPE":"U","CENTER_NAME":"EARTH","ARG_OF_PERICENTER":"275.5964","NORAD_CAT_ID":"55374","MEAN_ELEMENT_THEORY":"SGP4","ELEMENT_SET_NO":"999","FILE":"3849487","DECAY_DATE":null,"GP_ID":"227364607","MEAN_MOTION":"15.48888932","MEAN_ANOMALY":"344.7260","OBJECT_ID":"2023-013AV","RA_OF_ASC_NODE":"190.2332","EPOCH":"2023-03-02T20:00:01.000224","APOAPSIS":"421.077","COUNTRY_CODE":"US","SEMIMAJOR_AXIS":"6798.112","SITE":"AFETR","TLE_LINE1":"1 55374U 23013AV  23061.83334491  .00055985  00000-0  10119-2 0  9996","PERIOD":"92.970","BSTAR":"0.00101190000000","OBJECT_TYPE":"PAYLOAD","EPHEMERIS_TYPE":"0","MEAN_MOTION_DOT":"0.00055985","REF_FRAME":"TEME"},{"ELEMENT_SET_NO":"999","NORAD_CAT_ID":"55375","MEAN_ELEMENT_THEORY":"SGP4","FILE":"3849487","LAUNCH_DATE":"2023-01-26","TLE_LINE2":"2 55375  42.9996 190.2196 0001663 283.0876 342.3460 15.48876831  1301","PERIAPSIS":"418.882","MEAN_MOTION_DDOT":"0.0000000000000","ECCENTRICITY":"0.00016630","REV_AT_EPOCH":"130","OBJECT_NAME":"STARLINK-5588","RCS_SIZE":"LARGE","INCLINATION":"42.9996","TIME_SYSTEM":"UTC","CENTER_NAME":"EARTH","ARG_OF_PERICENTER":"283.0876","CLASSIFICATION_TYPE":"U","OBJECT_TYPE":"PAYLOAD","PERIOD":"92.971","BSTAR":"0.00136020000000","SITE":"AFETR","TLE_LINE1":"1 55375U 23013AW  23061.83334491  .00075529  00000-0  13602-2 0  9993","MEAN_MOTION_DOT":"0.00075529","REF_FRAME":"TEME","EPHEMERIS_TYPE":"0","EPOCH":"2023-03-02T20:00:01.000224","RA_OF_ASC_NODE":"190.2196","SEMIMAJOR_AXIS":"6798.148","COUNTRY_CODE":"US","APOAPSIS":"421.143","MEAN_MOTION":"15.48876831","DECAY_DATE":null,"GP_ID":"227363849","OBJECT_ID":"2023-013AW","MEAN_ANOMALY":"342.3460"},{"MEAN_MOTION":"15.71351730","GP_ID":"227364099","DECAY_DATE":null,"OBJECT_ID":"2023-013AX","MEAN_ANOMALY":"92.0332","EPOCH":"2023-03-02T12:46:20.961984","RA_OF_ASC_NODE":"191.1453","COUNTRY_CODE":"US","SEMIMAJOR_AXIS":"6733.170","APOAPSIS":"356.862","EPHEMERIS_TYPE":"0","MEAN_MOTION_DOT":"-0.00001538","REF_FRAME":"TEME","PERIOD":"91.641","BSTAR":"-0.00000827040000","TLE_LINE1":"1 55376U 23013AX  23061.53218706 -.00001538  00000-0 -82704-5 0  9994","SITE":"AFETR","OBJECT_TYPE":"PAYLOAD","ARG_OF_PERICENTER":"268.0225","CENTER_NAME":"EARTH","CLASSIFICATION_TYPE":"U","MEAN_MOTION_DDOT":"0.0000000000000","ECCENTRICITY":"0.00027130","REV_AT_EPOCH":"557","OBJECT_NAME":"STARLINK-5586","RCS_SIZE":"LARGE","INCLINATION":"43.0042","TIME_SYSTEM":"UTC","LAUNCH_DATE":"2023-01-26","TLE_LINE2":"2 55376  43.0042 191.1453 0002713 268.0225  92.0332 15.71351730  5572","PERIAPSIS":"353.208","FILE":"3849487","NORAD_CAT_ID":"55376","MEAN_ELEMENT_THEORY":"SGP4","ELEMENT_SET_NO":"999"},{"RA_OF_ASC_NODE":"190.2039","EPOCH":"2023-03-02T20:00:01.000224","APOAPSIS":"421.093","COUNTRY_CODE":"US","SEMIMAJOR_AXIS":"6798.140","DECAY_DATE":null,"GP_ID":"227364357","MEAN_MOTION":"15.48879548","MEAN_ANOMALY":"351.0245","OBJECT_ID":"2023-013AY","MEAN_MOTION_DOT":"0.00072901","REF_FRAME":"TEME","EPHEMERIS_TYPE":"0","OBJECT_TYPE":"PAYLOAD","SITE":"AFETR","TLE_LINE1":"1 55377U 23013AY  23061.83334491  .00072901  00000-0  13134-2 0  9996","BSTAR":"0.00131340000000","PERIOD":"92.970","CLASSIFICATION_TYPE":"U","ARG_OF_PERICENTER":"280.7922","CENTER_NAME":"EARTH","TLE_LINE2":"2 55377  42.9996 190.2039 0001601 280.7922 351.0245 15.48879548  1303","LAUNCH_DATE":"2023-01-26","PERIAPSIS":"418.916","ECCENTRICITY":"0.00016010","MEAN_MOTION_DDOT":"0.0000000000000","RCS_SIZE":"LARGE","TIME_SYSTEM":"UTC","INCLINATION":"42.9996","OBJECT_NAME":"STARLINK-5567","REV_AT_EPOCH":"130","FILE":"3849487","ELEMENT_SET_NO":"999","NORAD_CAT_ID":"55377","MEAN_ELEMENT_THEORY":"SGP4"},{"MEAN_ELEMENT_THEORY":"SGP4","NORAD_CAT_ID":"55378","ELEMENT_SET_NO":"999","FILE":"3849487","REV_AT_EPOCH":"130","OBJECT_NAME":"STARLINK-5572","RCS_SIZE":"LARGE","INCLINATION":"42.9996","TIME_SYSTEM":"UTC","MEAN_MOTION_DDOT":"0.0000000000000","ECCENTRICITY":"0.00016540","PERIAPSIS":"418.891","TLE_LINE2":"2 55378  42.9996 190.2230 0001654 279.6416 344.5157 15.48875774  1306","LAUNCH_DATE":"2023-01-26","ARG_OF_PERICENTER":"279.6416","CENTER_NAME":"EARTH","CLASSIFICATION_TYPE":"U","BSTAR":"0.00138340000000","PERIOD":"92.971","SITE":"AFETR","TLE_LINE1":"1 55378U 23013AZ  23061.83334491  .00076833  00000-0  13834-2 0  9992","OBJECT_TYPE":"PAYLOAD","EPHEMERIS_TYPE":"0","REF_FRAME":"TEME","MEAN_MOTION_DOT":"0.00076833","OBJECT_ID":"2023-013AZ","MEAN_ANOMALY":"344.5157","MEAN_MOTION":"15.48875774","DECAY_DATE":null,"GP_ID":"227365101","COUNTRY_CODE":"US","SEMIMAJOR_AXIS":"6798.151","APOAPSIS":"421.140","EPOCH":"2023-03-02T20:00:01.000224","RA_OF_ASC_NODE":"190.2230"},{"DECAY_DATE":null,"GP_ID":"227363356","MEAN_MOTION":"15.48883318","MEAN_ANOMALY":"346.6970","OBJECT_ID":"2023-013BA","RA_OF_ASC_NODE":"190.2102","EPOCH":"2023-03-02T20:00:01.000224","APOAPSIS":"421.191","COUNTRY_CODE":"US","SEMIMAJOR_AXIS":"6798.129","EPHEMERIS_TYPE":"0","MEAN_MOTION_DOT":"0.00068005","REF_FRAME":"TEME","TLE_LINE1":"1 55379U 23013BA  23061.83334491  .00068005  00000-0  12262-2 0  9999","SITE":"AFETR","PERIOD":"92.970","BSTAR":"0.00122620000000","OBJECT_TYPE":"PAYLOAD","CLASSIFICATION_TYPE":"U","CENTER_NAME":"EARTH","ARG_OF_PERICENTER":"282.5629","ECCENTRICITY":"0.00017610","MEAN_MOTION_DDOT":"0.0000000000000","INCLINATION":"42.9997","RCS_SIZE":"LARGE","OBJECT_NAME":"STARLINK-5569","TIME_SYSTEM":"UTC","REV_AT_EPOCH":"130","LAUNCH_DATE":"2023-01-26","TLE_LINE2":"2 55379  42.9997 190.2102 0001761 282.5629 346.6970 15.48883318  1303","PERIAPSIS":"418.796","FILE":"3849487","NORAD_CAT_ID":"55379","MEAN_ELEMENT_THEORY":"SGP4","ELEMENT_SET_NO":"999"},{"FILE":"3849487","ELEMENT_SET_NO":"999","NORAD_CAT_ID":"55380","MEAN_ELEMENT_THEORY":"SGP4","CLASSIFICATION_TYPE":"U","ARG_OF_PERICENTER":"265.8655","CENTER_NAME":"EARTH","LAUNCH_DATE":"2023-01-26","TLE_LINE2":"2 55380  43.0045 191.1432 0003086 265.8655  94.1861 15.71350198  5570","PERIAPSIS":"352.961","ECCENTRICITY":"0.00030860","MEAN_MOTION_DDOT":"0.0000000000000","TIME_SYSTEM":"UTC","RCS_SIZE":"LARGE","INCLINATION":"43.0045","OBJECT_NAME":"STARLINK-5571","REV_AT_EPOCH":"557","MEAN_MOTION_DOT":"-0.00000177","REF_FRAME":"TEME","EPHEMERIS_TYPE":"0","OBJECT_TYPE":"PAYLOAD","SITE":"AFETR","TLE_LINE1":"1 55380U 23013BB  23061.53187495 -.00000177  00000-0  21100-5 0  9999","PERIOD":"91.641","BSTAR":"0.00000211000000","RA_OF_ASC_NODE":"191.1432","EPOCH":"2023-03-02T12:45:53.995680","APOAPSIS":"357.117","COUNTRY_CODE":"US","SEMIMAJOR_AXIS":"6733.174","GP_ID":"227363606","DECAY_DATE":null,"MEAN_MOTION":"15.71350198","MEAN_ANOMALY":"94.1861","OBJECT_ID":"2023-013BB"},{"OBJECT_TYPE":"PAYLOAD","BSTAR":"0.00132780000000","PERIOD":"92.970","SITE":"AFETR","TLE_LINE1":"1 55381U 23013BC  23061.83334491  .00073710  00000-0  13278-2 0  9999","MEAN_MOTION_DOT":"0.00073710","REF_FRAME":"TEME","EPHEMERIS_TYPE":"0","EPOCH":"2023-03-02T20:00:01.000224","RA_OF_ASC_NODE":"190.2073","SEMIMAJOR_AXIS":"6798.141","COUNTRY_CODE":"US","APOAPSIS":"421.122","MEAN_MOTION":"15.48878952","GP_ID":"227364851","DECAY_DATE":null,"OBJECT_ID":"2023-013BC","MEAN_ANOMALY":"349.5728","ELEMENT_SET_NO":"999","NORAD_CAT_ID":"55381","MEAN_ELEMENT_THEORY":"SGP4","FILE":"3849487","LAUNCH_DATE":"2023-01-26","TLE_LINE2":"2 55381  42.9996 190.2073 0001641 280.9671 349.5728 15.48878952  1309","PERIAPSIS":"418.891","MEAN_MOTION_DDOT":"0.0000000000000","ECCENTRICITY":"0.00016410","REV_AT_EPOCH":"130","RCS_SIZE":"LARGE","INCLINATION":"42.9996","OBJECT_NAME":"STARLINK-5575","TIME_SYSTEM":"UTC","ARG_OF_PERICENTER":"280.9671","CENTER_NAME":"EARTH","CLASSIFICATION_TYPE":"U"}];
